start=new Date('2023-03-20T00:00:00.000Z').valueOf();
sats=[{"TIME_SYSTEM":"UTC","MEAN_ANOMALY":"265.3604","OBJECT_ID":"2021-040E","GP_ID":"228452506","REV_AT_EPOCH":"10406","REF_FRAME":"TEME","PERIOD":"95.593","EPHEMERIS_TYPE":"0","RCS_SIZE":"LARGE","CLASSIFICATION_TYPE":"U","MEAN_MOTION_DOT":"0.00002407","OBJECT_NAME":"STARLINK-2680","NORAD_CAT_ID":"48432","SEMIMAJOR_AXIS":"6925.373","ECCENTRICITY":"0.00011360","SITE":"AFETR","COUNTRY_CODE":"US","ELEMENT_SET_NO":"999","FILE":"3865254","APOAPSIS":"548.025","DECAY_DATE":null,"ARG_OF_PERICENTER":"94.7514","EPOCH":"2023-03-19T21:16:14.108160","MEAN_ELEMENT_THEORY":"SGP4","LAUNCH_DATE":"2021-05-09","TLE_LINE1":"1 48432U 21040E   23078.88627440  .00002407  00000-0  18048-3 0  9994","BSTAR":"0.00018048000000","MEAN_MOTION_DDOT":"0.0000000000000","RA_OF_ASC_NODE":"341.3796","PERIAPSIS":"546.451","CENTER_NAME":"EARTH","INCLINATION":"53.0545","MEAN_MOTION":"15.06391957","OBJECT_TYPE":"PAYLOAD","TLE_LINE2":"2 48432  53.0545 341.3796 0001136  94.7514 265.3604 15.06391957104062"},{"APOAPSIS":"548.318","FILE":"3865354","ELEMENT_SET_NO":"999","MEAN_ELEMENT_THEORY":"SGP4","LAUNCH_DATE":"2021-05-09","EPOCH":"2023-03-19T21:34:08.158656","DECAY_DATE":null,"ARG_OF_PERICENTER":"88.2850","INCLINATION":"53.0548","PERIAPSIS":"546.139","CENTER_NAME":"EARTH","RA_OF_ASC_NODE":"346.2070","MEAN_MOTION_DDOT":"0.0000000000000","BSTAR":"0.00056494000000","TLE_LINE1":"1 48433U 21040F   23078.89870554  .00008142  00000-0  56494-3 0  9991","TLE_LINE2":"2 48433  53.0548 346.2070 0001573  88.2850 271.8319 15.06395170103381","OBJECT_TYPE":"PAYLOAD","MEAN_MOTION":"15.06395170","REF_FRAME":"TEME","REV_AT_EPOCH":"10338","GP_ID":"228476400","OBJECT_ID":"2021-040F","MEAN_ANOMALY":"271.8319","TIME_SYSTEM":"UTC","SEMIMAJOR_AXIS":"6925.363","OBJECT_NAME":"STARLINK-2699","NORAD_CAT_ID":"48433","MEAN_MOTION_DOT":"0.00008142","CLASSIFICATION_TYPE":"U","RCS_SIZE":"LARGE","EPHEMERIS_TYPE":"0","PERIOD":"95.592","COUNTRY_CODE":"US","SITE":"AFETR","ECCENTRICITY":"0.00015730"},{"SITE":"AFETR","COUNTRY_CODE":"US","ECCENTRICITY":"0.00013410","OBJECT_NAME":"STARLINK-2692","NORAD_CAT_ID":"48434","MEAN_MOTION_DOT":"0.00000651","SEMIMAJOR_AXIS":"6925.269","PERIOD":"95.590","EPHEMERIS_TYPE":"0","RCS_SIZE":"LARGE","CLASSIFICATION_TYPE":"U","REV_AT_EPOCH":"10325","GP_ID":"228441470","REF_FRAME":"TEME","TIME_SYSTEM":"UTC","MEAN_ANOMALY":"273.1405","OBJECT_ID":"2021-040G","OBJECT_TYPE":"PAYLOAD","TLE_LINE2":"2 48434  53.0544 353.3795 0001341  86.9737 273.1405 15.06426103103251","MEAN_MOTION":"15.06426103","RA_OF_ASC_NODE":"353.3795","CENTER_NAME":"EARTH","PERIAPSIS":"546.205","INCLINATION":"53.0544","TLE_LINE1":"1 48434U 21040G   23078.46515779  .00000651  00000-0  62582-4 0  9993","MEAN_MOTION_DDOT":"0.0000000000000","BSTAR":"0.00006258200000","LAUNCH_DATE":"2021-05-09","MEAN_ELEMENT_THEORY":"SGP4","ARG_OF_PERICENTER":"86.9737","DECAY_DATE":null,"EPOCH":"2023-03-19T11:09:49.633056","FILE":"3865049","APOAPSIS":"548.062","ELEMENT_SET_NO":"999"},{"REF_FRAME":"TEME","REV_AT_EPOCH":"10307","GP_ID":"228441720","MEAN_ANOMALY":"265.5598","OBJECT_ID":"2021-040H","TIME_SYSTEM":"UTC","SEMIMAJOR_AXIS":"6925.214","OBJECT_NAME":"STARLINK-2633","NORAD_CAT_ID":"48435","MEAN_MOTION_DOT":"0.00034677","RCS_SIZE":"LARGE","CLASSIFICATION_TYPE":"U","PERIOD":"95.589","EPHEMERIS_TYPE":"0","SITE":"AFETR","COUNTRY_CODE":"US","ECCENTRICITY":"0.00010060","APOAPSIS":"547.776","FILE":"3865049","ELEMENT_SET_NO":"999","LAUNCH_DATE":"2021-05-09","MEAN_ELEMENT_THEORY":"SGP4","ARG_OF_PERICENTER":"94.5506","DECAY_DATE":null,"EPOCH":"2023-03-19T04:56:52.933344","CENTER_NAME":"EARTH","PERIAPSIS":"546.382","INCLINATION":"53.0542","RA_OF_ASC_NODE":"4.0388","MEAN_MOTION_DDOT":"0.0000000000000","BSTAR":"0.00233270000000","TLE_LINE1":"1 48435U 21040H   23078.20616821  .00034677  00000-0  23327-2 0  9993","TLE_LINE2":"2 48435  53.0542   4.0388 0001006  94.5506 265.5598 15.06443858103079","OBJECT_TYPE":"PAYLOAD","MEAN_MOTION":"15.06443858"},{"MEAN_MOTION":"15.06418530","OBJECT_TYPE":"PAYLOAD","TLE_LINE2":"2 48436  53.0548  17.5877 0001117 111.6472 248.4636 15.06418530102918","MEAN_MOTION_DDOT":"0.0000000000000","BSTAR":"-0.00122860000000","TLE_LINE1":"1 48436U 21040J   23078.52729989 -.00018543  00000-0 -12286-2 0  9997","INCLINATION":"53.0548","PERIAPSIS":"546.383","CENTER_NAME":"EARTH","RA_OF_ASC_NODE":"17.5877","EPOCH":"2023-03-19T12:39:18.710496","DECAY_DATE":null,"ARG_OF_PERICENTER":"111.6472","LAUNCH_DATE":"2021-05-09","MEAN_ELEMENT_THEORY":"SGP4","ELEMENT_SET_NO":"999","APOAPSIS":"547.930","FILE":"3865049","ECCENTRICITY":"0.00011170","COUNTRY_CODE":"US","SITE":"AFETR","CLASSIFICATION_TYPE":"U","RCS_SIZE":"LARGE","EPHEMERIS_TYPE":"0","PERIOD":"95.591","SEMIMAJOR_AXIS":"6925.292","NORAD_CAT_ID":"48436","OBJECT_NAME":"STARLINK-2639","MEAN_MOTION_DOT":"-0.00018543","OBJECT_ID":"2021-040J","MEAN_ANOMALY":"248.4636","TIME_SYSTEM":"UTC","REF_FRAME":"TEME","GP_ID":"228442971","REV_AT_EPOCH":"10291"},{"MEAN_MOTION":"15.06389564","TLE_LINE2":"2 48437  53.0527  26.1683 0001675 109.0769 251.0401 15.06389564102820","OBJECT_TYPE":"PAYLOAD","MEAN_MOTION_DDOT":"0.0000000000000","BSTAR":"-0.00091620000000","TLE_LINE1":"1 48437U 21040K   23078.84337234 -.00013898  00000-0 -91620-3 0  9999","INCLINATION":"53.0527","CENTER_NAME":"EARTH","PERIAPSIS":"546.086","RA_OF_ASC_NODE":"26.1683","EPOCH":"2023-03-19T20:14:27.370176","DECAY_DATE":null,"ARG_OF_PERICENTER":"109.0769","MEAN_ELEMENT_THEORY":"SGP4","LAUNCH_DATE":"2021-05-09","ELEMENT_SET_NO":"999","APOAPSIS":"548.406","FILE":"3865354","ECCENTRICITY":"0.00016750","COUNTRY_CODE":"US","SITE":"AFETR","CLASSIFICATION_TYPE":"U","RCS_SIZE":"LARGE","EPHEMERIS_TYPE":"0","PERIOD":"95.593","SEMIMAJOR_AXIS":"6925.381","OBJECT_NAME":"STARLINK-2642","MEAN_MOTION_DOT":"-0.00013898","NORAD_CAT_ID":"48437","OBJECT_ID":"2021-040K","MEAN_ANOMALY":"251.0401","TIME_SYSTEM":"UTC","REF_FRAME":"TEME","GP_ID":"228475900","REV_AT_EPOCH":"10282"},{"MEAN_MOTION":"15.06408962","OBJECT_TYPE":"PAYLOAD","TLE_LINE2":"2 48438  53.0567  16.4151 0002970  81.2199 278.9126 15.06408962102954","TLE_LINE1":"1 48438U 21040L   23078.78900529  .00007498  00000-0  52159-3 0  9997","MEAN_MOTION_DDOT":"0.0000000000000","BSTAR":"0.00052159000000","RA_OF_ASC_NODE":"16.4151","CENTER_NAME":"EARTH","PERIAPSIS":"545.129","INCLINATION":"53.0567","DECAY_DATE":null,"ARG_OF_PERICENTER":"81.2199","EPOCH":"2023-03-19T18:56:10.057056","MEAN_ELEMENT_THEORY":"SGP4","LAUNCH_DATE":"2021-05-09","ELEMENT_SET_NO":"999","FILE":"3865354","APOAPSIS":"549.243","ECCENTRICITY":"0.00029700","SITE":"AFETR","COUNTRY_CODE":"US","PERIOD":"95.592","EPHEMERIS_TYPE":"0","RCS_SIZE":"LARGE","CLASSIFICATION_TYPE":"U","NORAD_CAT_ID":"48438","OBJECT_NAME":"STARLINK-2640","MEAN_MOTION_DOT":"0.00007498","SEMIMAJOR_AXIS":"6925.321","TIME_SYSTEM":"UTC","MEAN_ANOMALY":"278.9126","OBJECT_ID":"2021-040L","GP_ID":"228476649","REV_AT_EPOCH":"10295","REF_FRAME":"TEME"},{"ECCENTRICITY":"0.00031170","SITE":"AFETR","COUNTRY_CODE":"US","PERIOD":"95.592","EPHEMERIS_TYPE":"0","RCS_SIZE":"LARGE","CLASSIFICATION_TYPE":"U","NORAD_CAT_ID":"48439","OBJECT_NAME":"STARLINK-2583","MEAN_MOTION_DOT":"0.00010033","SEMIMAJOR_AXIS":"6925.328","TIME_SYSTEM":"UTC","MEAN_ANOMALY":"271.2682","OBJECT_ID":"2021-040M","REV_AT_EPOCH":"10296","GP_ID":"228475399","REF_FRAME":"TEME","MEAN_MOTION":"15.06406597","TLE_LINE2":"2 48439  53.0569  16.1330 0003117  88.8664 271.2682 15.06406597102963","OBJECT_TYPE":"PAYLOAD","TLE_LINE1":"1 48439U 21040M   23078.85166322  .00010033  00000-0  69137-3 0  9994","MEAN_MOTION_DDOT":"0.0000000000000","BSTAR":"0.00069137000000","RA_OF_ASC_NODE":"16.1330","CENTER_NAME":"EARTH","PERIAPSIS":"545.035","INCLINATION":"53.0569","DECAY_DATE":null,"ARG_OF_PERICENTER":"88.8664","EPOCH":"2023-03-19T20:26:23.702208","MEAN_ELEMENT_THEORY":"SGP4","LAUNCH_DATE":"2021-05-09","ELEMENT_SET_NO":"999","FILE":"3865354","APOAPSIS":"549.352"},{"ECCENTRICITY":"0.00024320","SITE":"AFETR","COUNTRY_CODE":"US","PERIOD":"95.592","EPHEMERIS_TYPE":"0","RCS_SIZE":"LARGE","CLASSIFICATION_TYPE":"U","NORAD_CAT_ID":"48440","OBJECT_NAME":"STARLINK-2682","MEAN_MOTION_DOT":"0.00014618","SEMIMAJOR_AXIS":"6925.324","TIME_SYSTEM":"UTC","MEAN_ANOMALY":"243.8705","OBJECT_ID":"2021-040N","REV_AT_EPOCH":"10341","GP_ID":"228447574","REF_FRAME":"TEME","MEAN_MOTION":"15.06408159","TLE_LINE2":"2 48440  53.0576  16.1501 0002432 116.2534 243.8705 15.06408159103412","OBJECT_TYPE":"PAYLOAD","TLE_LINE1":"1 48440U 21040N   23078.84798073  .00014618  00000-0  99800-3 0  9992","BSTAR":"0.00099800000000","MEAN_MOTION_DDOT":"0.0000000000000","RA_OF_ASC_NODE":"16.1501","CENTER_NAME":"EARTH","PERIAPSIS":"545.504","INCLINATION":"53.0576","ARG_OF_PERICENTER":"116.2534","DECAY_DATE":null,"EPOCH":"2023-03-19T20:21:05.535072","LAUNCH_DATE":"2021-05-09","MEAN_ELEMENT_THEORY":"SGP4","ELEMENT_SET_NO":"999","FILE":"3865061","APOAPSIS":"548.873"},{"GP_ID":"228476401","REV_AT_EPOCH":"10296","REF_FRAME":"TEME","TIME_SYSTEM":"UTC","MEAN_ANOMALY":"253.1648","OBJECT_ID":"2021-040P","MEAN_MOTION_DOT":"0.00013646","OBJECT_NAME":"STARLINK-2702","NORAD_CAT_ID":"48441","SEMIMAJOR_AXIS":"6925.354","PERIOD":"95.592","EPHEMERIS_TYPE":"0","RCS_SIZE":"LARGE","CLASSIFICATION_TYPE":"U","SITE":"AFETR","COUNTRY_CODE":"US","ECCENTRICITY":"0.00007680","FILE":"3865354","APOAPSIS":"547.751","ELEMENT_SET_NO":"999","LAUNCH_DATE":"2021-05-09","MEAN_ELEMENT_THEORY":"SGP4","DECAY_DATE":null,"ARG_OF_PERICENTER":"106.9425","EPOCH":"2023-03-19T20:15:47.419776","RA_OF_ASC_NODE":"16.1665","PERIAPSIS":"546.687","CENTER_NAME":"EARTH","INCLINATION":"53.0573","TLE_LINE1":"1 48441U 21040P   23078.84429884  .00013646  00000-0  93327-3 0  9992","MEAN_MOTION_DDOT":"0.0000000000000","BSTAR":"0.00093327000000","TLE_LINE2":"2 48441  53.0573  16.1665 0000768 106.9425 253.1648 15.06398201102961","OBJECT_TYPE":"PAYLOAD","MEAN_MOTION":"15.06398201"}];
